start=new Date('2021-11-28T00:00:00.000Z').valueOf();
sats=[{"NORAD_CAT_ID":"48031","FILE":"3225675","RA_OF_ASC_NODE":"49.2687","CLASSIFICATION_TYPE":"U","SEMIMAJOR_AXIS":"6727.535","MEAN_ANOMALY":"257.5549","MEAN_MOTION":"15.73326472","DECAY_DATE":null,"COUNTRY_CODE":"US","ELEMENT_SET_NO":"999","ECCENTRICITY":"0.00083680","LAUNCH_DATE":"2021-03-24","GP_ID":"190623243","MEAN_MOTION_DDOT":"0.0000000000000","TIME_SYSTEM":"UTC","OBJECT_NAME":"STARLINK-2267","SITE":"AFETR","OBJECT_TYPE":"PAYLOAD","BSTAR":"-0.00182520000000","OBJECT_ID":"2021-024BG","INCLINATION":"53.0540","CENTER_NAME":"EARTH","PERIAPSIS":"343.770","REF_FRAME":"TEME","APOAPSIS":"355.029","EPHEMERIS_TYPE":"0","TLE_LINE2":"2 48031  53.0540  49.2687 0008368 321.3200 257.5549 15.73326472  3692","PERIOD":"91.526","ARG_OF_PERICENTER":"321.3200","EPOCH":"2021-11-27T22:00:00.999936","RCS_SIZE":"LARGE","TLE_LINE1":"1 48031U 21024BG  21331.91667824 -.00251378  00000-0 -18252-2 0  9996","MEAN_ELEMENT_THEORY":"SGP4","REV_AT_EPOCH":"369","MEAN_MOTION_DOT":"-0.00251378"},{"FILE":"3225675","RA_OF_ASC_NODE":"49.2592","NORAD_CAT_ID":"48032","SEMIMAJOR_AXIS":"6719.914","CLASSIFICATION_TYPE":"U","MEAN_ANOMALY":"332.4812","MEAN_MOTION":"15.76003556","DECAY_DATE":null,"COUNTRY_CODE":"US","ELEMENT_SET_NO":"999","ECCENTRICITY":"0.00073050","LAUNCH_DATE":"2021-03-24","GP_ID":"190621999","MEAN_MOTION_DDOT":"0.0000000000000","TIME_SYSTEM":"UTC","OBJECT_NAME":"STARLINK-2297","SITE":"AFETR","OBJECT_TYPE":"PAYLOAD","BSTAR":"0.00123240000000","OBJECT_ID":"2021-024BH","INCLINATION":"53.0545","CENTER_NAME":"EARTH","PERIAPSIS":"336.870","APOAPSIS":"346.688","REF_FRAME":"TEME","EPHEMERIS_TYPE":"0","TLE_LINE2":"2 48032  53.0545  49.2592 0007305 279.4580 332.4812 15.76003556  3691","PERIOD":"91.370","ARG_OF_PERICENTER":"279.4580","EPOCH":"2021-11-27T22:00:00.999936","RCS_SIZE":"LARGE","TLE_LINE1":"1 48032U 21024BH  21331.91667824  .00199637  00000-0  12324-2 0  9998","MEAN_ELEMENT_THEORY":"SGP4","REV_AT_EPOCH":"369","MEAN_MOTION_DOT":"0.00199637"},{"FILE":"3225675","RA_OF_ASC_NODE":"147.2065","NORAD_CAT_ID":"48033","DECAY_DATE":null,"COUNTRY_CODE":"US","CLASSIFICATION_TYPE":"U","SEMIMAJOR_AXIS":"6924.408","MEAN_MOTION":"15.06706879","MEAN_ANOMALY":"279.2393","MEAN_MOTION_DDOT":"0.0000000000000","GP_ID":"190622249","LAUNCH_DATE":"2021-03-24","ELEMENT_SET_NO":"999","ECCENTRICITY":"0.00014130","BSTAR":"-0.00360070000000","OBJECT_TYPE":"PAYLOAD","TIME_SYSTEM":"UTC","OBJECT_NAME":"STARLINK-2286","SITE":"AFETR","INCLINATION":"53.0529","OBJECT_ID":"2021-024BJ","TLE_LINE2":"2 48033  53.0529 147.2065 0001413  80.8756 279.2393 15.06706879 39086","EPHEMERIS_TYPE":"0","PERIAPSIS":"545.295","CENTER_NAME":"EARTH","APOAPSIS":"547.252","REF_FRAME":"TEME","EPOCH":"2021-11-27T21:19:19.989984","ARG_OF_PERICENTER":"80.8756","PERIOD":"95.573","REV_AT_EPOCH":"3908","MEAN_MOTION_DOT":"-0.00053954","RCS_SIZE":"LARGE","MEAN_ELEMENT_THEORY":"SGP4","TLE_LINE1":"1 48033U 21024BJ  21331.88842581 -.00053954  00000-0 -36007-2 0  9997"},{"OBJECT_ID":"2021-024BK","INCLINATION":"53.0552","CENTER_NAME":"EARTH","PERIAPSIS":"545.802","APOAPSIS":"548.686","REF_FRAME":"TEME","EPHEMERIS_TYPE":"0","TLE_LINE2":"2 48034  53.0552 147.8245 0002082  85.4480 274.6747 15.06390165 39064","ARG_OF_PERICENTER":"85.4480","PERIOD":"95.593","EPOCH":"2021-11-27T18:34:42.600288","RCS_SIZE":"LARGE","TLE_LINE1":"1 48034U 21024BK  21331.77410417  .00001050  00000-0  89446-4 0  9990","MEAN_ELEMENT_THEORY":"SGP4","REV_AT_EPOCH":"3906","MEAN_MOTION_DOT":"0.00001050","NORAD_CAT_ID":"48034","FILE":"3225675","RA_OF_ASC_NODE":"147.8245","SEMIMAJOR_AXIS":"6925.379","CLASSIFICATION_TYPE":"U","MEAN_ANOMALY":"274.6747","MEAN_MOTION":"15.06390165","DECAY_DATE":null,"COUNTRY_CODE":"US","ELEMENT_SET_NO":"999","ECCENTRICITY":"0.00020820","GP_ID":"190622985","LAUNCH_DATE":"2021-03-24","MEAN_MOTION_DDOT":"0.0000000000000","TIME_SYSTEM":"UTC","OBJECT_NAME":"STARLINK-2288","SITE":"AFETR","OBJECT_TYPE":"PAYLOAD","BSTAR":"0.00008944600000"},{"MEAN_ELEMENT_THEORY":"SGP4","TLE_LINE1":"1 48035U 21024BL  21331.91667824  .00493334  00000-0  22027-2 0  9993","RCS_SIZE":"LARGE","MEAN_MOTION_DOT":"0.00493334","REV_AT_EPOCH":"369","EPOCH":"2021-11-27T22:00:00.999936","ARG_OF_PERICENTER":"277.7685","PERIOD":"91.002","REF_FRAME":"TEME","APOAPSIS":"326.465","PERIAPSIS":"320.914","CENTER_NAME":"EARTH","TLE_LINE2":"2 48035  53.0545  49.0422 0004141 277.7685  82.3049 15.82388744  3691","EPHEMERIS_TYPE":"0","OBJECT_ID":"2021-024BL","INCLINATION":"53.0545","SITE":"AFETR","TIME_SYSTEM":"UTC","OBJECT_NAME":"STARLINK-2287","BSTAR":"0.00220270000000","OBJECT_TYPE":"PAYLOAD","ECCENTRICITY":"0.00041410","ELEMENT_SET_NO":"999","MEAN_MOTION_DDOT":"0.0000000000000","GP_ID":"190623743","LAUNCH_DATE":"2021-03-24","MEAN_MOTION":"15.82388744","MEAN_ANOMALY":"82.3049","SEMIMAJOR_AXIS":"6701.825","CLASSIFICATION_TYPE":"U","COUNTRY_CODE":"US","DECAY_DATE":null,"NORAD_CAT_ID":"48035","FILE":"3225675","RA_OF_ASC_NODE":"49.0422"},{"RA_OF_ASC_NODE":"147.7897","FILE":"3225675","NORAD_CAT_ID":"48036","DECAY_DATE":null,"COUNTRY_CODE":"US","SEMIMAJOR_AXIS":"6925.378","CLASSIFICATION_TYPE":"U","MEAN_MOTION":"15.06390414","MEAN_ANOMALY":"271.2099","MEAN_MOTION_DDOT":"0.0000000000000","GP_ID":"190622499","LAUNCH_DATE":"2021-03-24","ELEMENT_SET_NO":"999","ECCENTRICITY":"0.00020140","BSTAR":"0.00006269300000","OBJECT_TYPE":"PAYLOAD","TIME_SYSTEM":"UTC","OBJECT_NAME":"STARLINK-2295","SITE":"AFETR","INCLINATION":"53.0537","OBJECT_ID":"2021-024BM","TLE_LINE2":"2 48036  53.0537 147.7897 0002014  88.9120 271.2099 15.06390414 39065","EPHEMERIS_TYPE":"0","PERIAPSIS":"545.848","CENTER_NAME":"EARTH","APOAPSIS":"548.638","REF_FRAME":"TEME","EPOCH":"2021-11-27T18:45:19.264608","ARG_OF_PERICENTER":"88.9120","PERIOD":"95.593","REV_AT_EPOCH":"3906","MEAN_MOTION_DOT":"0.00000652","RCS_SIZE":"LARGE","MEAN_ELEMENT_THEORY":"SGP4","TLE_LINE1":"1 48036U 21024BM  21331.78147297  .00000652  00000-0  62693-4 0  9998"},{"DECAY_DATE":null,"COUNTRY_CODE":"US","CLASSIFICATION_TYPE":"U","SEMIMAJOR_AXIS":"6925.351","MEAN_MOTION":"15.06399236","MEAN_ANOMALY":"310.3861","FILE":"3225675","NORAD_CAT_ID":"48092","RA_OF_ASC_NODE":"273.4621","BSTAR":"0.00011327000000","OBJECT_TYPE":"PAYLOAD","TIME_SYSTEM":"UTC","OBJECT_NAME":"STARLINK-2048","SITE":"AFETR","MEAN_MOTION_DDOT":"0.0000000000000","LAUNCH_DATE":"2021-04-07","GP_ID":"190623491","ELEMENT_SET_NO":"999","ECCENTRICITY":"0.00026780","TLE_LINE2":"2 48092  53.0548 273.4621 0002678  49.7361 310.3861 15.06399236 37879","EPHEMERIS_TYPE":"0","PERIAPSIS":"545.361","CENTER_NAME":"EARTH","REF_FRAME":"TEME","APOAPSIS":"549.071","INCLINATION":"53.0548","OBJECT_ID":"2021-027A","REV_AT_EPOCH":"3787","MEAN_MOTION_DOT":"0.00001406","RCS_SIZE":"LARGE","MEAN_ELEMENT_THEORY":"SGP4","TLE_LINE1":"1 48092U 21027A   21331.62707301  .00001406  00000-0  11327-3 0  9999","EPOCH":"2021-11-27T15:02:59.108064","PERIOD":"95.592","ARG_OF_PERICENTER":"49.7361"},{"COUNTRY_CODE":"US","DECAY_DATE":null,"MEAN_ANOMALY":"303.6161","MEAN_MOTION":"15.06400205","CLASSIFICATION_TYPE":"U","SEMIMAJOR_AXIS":"6925.348","NORAD_CAT_ID":"48093","FILE":"3225675","RA_OF_ASC_NODE":"338.0193","OBJECT_TYPE":"PAYLOAD","BSTAR":"0.00000605290000","SITE":"AFETR","OBJECT_NAME":"STARLINK-2404","TIME_SYSTEM":"UTC","LAUNCH_DATE":"2021-04-07","GP_ID":"190623250","MEAN_MOTION_DDOT":"0.0000000000000","ECCENTRICITY":"0.00017010","ELEMENT_SET_NO":"999","EPHEMERIS_TYPE":"0","TLE_LINE2":"2 48093  53.0569 338.0193 0001701  56.4991 303.6161 15.06400205 36983","APOAPSIS":"548.391","REF_FRAME":"TEME","CENTER_NAME":"EARTH","PERIAPSIS":"546.035","INCLINATION":"53.0569","OBJECT_ID":"2021-027B","MEAN_MOTION_DOT":"-0.00000191","REV_AT_EPOCH":"3698","TLE_LINE1":"1 48093U 21027B   21331.72982234 -.00000191  00000-0  60529-5 0  9992","MEAN_ELEMENT_THEORY":"SGP4","RCS_SIZE":"LARGE","PERIOD":"95.592","ARG_OF_PERICENTER":"56.4991","EPOCH":"2021-11-27T17:30:56.650176"},{"FILE":"3225675","NORAD_CAT_ID":"48094","RA_OF_ASC_NODE":"347.8574","CLASSIFICATION_TYPE":"U","SEMIMAJOR_AXIS":"6925.367","MEAN_MOTION":"15.06393878","MEAN_ANOMALY":"296.0294","DECAY_DATE":null,"COUNTRY_CODE":"US","ELEMENT_SET_NO":"999","ECCENTRICITY":"0.00015990","MEAN_MOTION_DDOT":"0.0000000000000","LAUNCH_DATE":"2021-04-07","GP_ID":"190622006","TIME_SYSTEM":"UTC","OBJECT_NAME":"STARLINK-2412","SITE":"AFETR","BSTAR":"0.00004009800000","OBJECT_TYPE":"PAYLOAD","OBJECT_ID":"2021-027C","INCLINATION":"53.0557","PERIAPSIS":"546.125","CENTER_NAME":"EARTH","APOAPSIS":"548.340","REF_FRAME":"TEME","TLE_LINE2":"2 48094  53.0557 347.8574 0001599  64.0860 296.0294 15.06393878 36852","EPHEMERIS_TYPE":"0","EPOCH":"2021-11-27T18:24:03.653280","ARG_OF_PERICENTER":"64.0860","PERIOD":"95.593","RCS_SIZE":"LARGE","MEAN_ELEMENT_THEORY":"SGP4","TLE_LINE1":"1 48094U 21027C   21331.76670895  .00000316  00000-0  40098-4 0  9990","REV_AT_EPOCH":"3685","MEAN_MOTION_DOT":"0.00000316"},{"FILE":"3225675","NORAD_CAT_ID":"48095","RA_OF_ASC_NODE":"347.8300","SEMIMAJOR_AXIS":"6925.344","CLASSIFICATION_TYPE":"U","MEAN_ANOMALY":"306.1486","MEAN_MOTION":"15.06401399","DECAY_DATE":null,"COUNTRY_CODE":"US","ELEMENT_SET_NO":"999","ECCENTRICITY":"0.00016510","GP_ID":"190622256","LAUNCH_DATE":"2021-04-07","MEAN_MOTION_DDOT":"0.0000000000000","OBJECT_NAME":"STARLINK-2414","TIME_SYSTEM":"UTC","SITE":"AFETR","OBJECT_TYPE":"PAYLOAD","BSTAR":"0.00009738900000","OBJECT_ID":"2021-027D","INCLINATION":"53.0562","CENTER_NAME":"EARTH","PERIAPSIS":"546.066","APOAPSIS":"548.353","REF_FRAME":"TEME","EPHEMERIS_TYPE":"0","TLE_LINE2":"2 48095  53.0562 347.8300 0001651  53.9656 306.1486 15.06401399 36860","PERIOD":"95.592","ARG_OF_PERICENTER":"53.9656","EPOCH":"2021-11-27T18:34:40.029024","RCS_SIZE":"LARGE","TLE_LINE1":"1 48095U 21027D   21331.77407441  .00001169  00000-0  97389-4 0  9999","MEAN_ELEMENT_THEORY":"SGP4","REV_AT_EPOCH":"3686","MEAN_MOTION_DOT":"0.00001169"}];
